STARLINK-30542          
1 58041U 23156P   26068.25413117 -.00000265  00000+0  31782-5 0  9990
2 58041  53.1597  80.2535 0001150  85.0081 275.1051 15.30194254136243
TEVEL2-9                
1 63237U 25052AD  26068.70229538  .00018694  00000+0  67240-3 0  9992
2 63237  97.4057 324.3929 0007990 124.2475 235.9522 15.28633834 54816
